*******************************************************************************
Revised: Sep 12, 1996           Earth Barycenter                              3
 
 Dynamical point:
 ---------------
 The common point about which the Earth and Moon revolve (center of mass). This
 is approximately 4671 km from the center of the Earth, or about 3/4 of the way 
 to the surface. See 399 for Earth center, or 301 for Moon center ephemeris.

*******************************************************************************
 
 
*******************************************************************************
Ephemeris / WWW_USER Mon Jun 24 14:29:18 2013 Pasadena, USA      / Horizons    
*******************************************************************************
Target body name: Earth-Moon Barycenter (3)       {source: DE405}
Center body name: Solar System Barycenter (0)     {source: DE405}
Center-site name: BODY CENTER
*******************************************************************************
Start time      : A.D. 2026-Apr-15 00:00:00.0000 CT 
Stop  time      : A.D. 2026-Apr-18 00:00:00.0000 CT 
Step-size       : 60 minutes
*******************************************************************************
Center geodetic : 0.00000000,0.00000000,0.0000000 {E-lon(deg),Lat(deg),Alt(km)}
Center cylindric: 0.00000000,0.00000000,0.0000000 {E-lon(deg),Dxy(km),Dz(km)}
Center radii    : (undefined)                                                  
Output units    : KM-S                                                         
Output format   : 05
Reference frame : ICRF/J2000.0                                                 
Output type     : GEOMETRIC cartesian states
Coordinate systm: Ecliptic and Mean Equinox of Reference Epoch                 
*******************************************************************************
JDCT 
   VX    VY    VZ
*******************************************************************************
$$SOE
2461145.500000000 = A.D. 2026-Apr-15 00:00:00.0000 (CT)
   1.196545772740645E+01 -2.717752670115459E+01  1.323224366463353E-03
2461145.541666667 = A.D. 2026-Apr-15 01:00:00.0000 (CT)
   1.198473271660677E+01 -2.716866117337950E+01  1.322587331747216E-03
2461145.583333333 = A.D. 2026-Apr-15 02:00:00.0000 (CT)
   1.200400093820118E+01 -2.715978212731878E+01  1.321949518296104E-03
2461145.625000000 = A.D. 2026-Apr-15 03:00:00.0000 (CT)
   1.202326238294109E+01 -2.715088956839809E+01  1.321310926473297E-03
2461145.666666667 = A.D. 2026-Apr-15 04:00:00.0000 (CT)
   1.204251704158255E+01 -2.714198350204905E+01  1.320671556633285E-03
2461145.708333333 = A.D. 2026-Apr-15 05:00:00.0000 (CT)
   1.206176490488627E+01 -2.713306393370927E+01  1.320031409143078E-03
2461145.750000000 = A.D. 2026-Apr-15 06:00:00.0000 (CT)
   1.208100596361762E+01 -2.712413086882231E+01  1.319390484365352E-03
2461145.791666667 = A.D. 2026-Apr-15 07:00:00.0000 (CT)
   1.210024020854666E+01 -2.711518431283768E+01  1.318748782659970E-03
2461145.833333333 = A.D. 2026-Apr-15 08:00:00.0000 (CT)
   1.211946763044808E+01 -2.710622427121087E+01  1.318106304401706E-03
2461145.875000000 = A.D. 2026-Apr-15 09:00:00.0000 (CT)
   1.213868822010127E+01 -2.709725074940328E+01  1.317463049951429E-03
2461145.916666667 = A.D. 2026-Apr-15 10:00:00.0000 (CT)
   1.215790196829030E+01 -2.708826375288229E+01  1.316819019688610E-03
2461145.958333333 = A.D. 2026-Apr-15 11:00:00.0000 (CT)
   1.217710886580390E+01 -2.707926328712121E+01  1.316174213975556E-03
2461146.000000000 = A.D. 2026-Apr-15 12:00:00.0000 (CT)
   1.219630890343548E+01 -2.707024935759928E+01  1.315528633194478E-03
2461146.041666667 = A.D. 2026-Apr-15 13:00:00.0000 (CT)
   1.221550207198317E+01 -2.706122196980167E+01  1.314882277715313E-03
2461146.083333333 = A.D. 2026-Apr-15 14:00:00.0000 (CT)
   1.223468836224975E+01 -2.705218112921949E+01  1.314235147923007E-03
2461146.125000000 = A.D. 2026-Apr-15 15:00:00.0000 (CT)
   1.225386776504272E+01 -2.704312684134975E+01  1.313587244197188E-03
2461146.166666667 = A.D. 2026-Apr-15 16:00:00.0000 (CT)
   1.227304027117425E+01 -2.703405911169538E+01  1.312938566912926E-03
2461146.208333333 = A.D. 2026-Apr-15 17:00:00.0000 (CT)
   1.229220587146124E+01 -2.702497794576525E+01  1.312289116460189E-03
2461146.250000000 = A.D. 2026-Apr-15 18:00:00.0000 (CT)
   1.231136455672527E+01 -2.701588334907410E+01  1.311638893222427E-03
2461146.291666667 = A.D. 2026-Apr-15 19:00:00.0000 (CT)
   1.233051631779263E+01 -2.700677532714259E+01  1.310987897586250E-03
2461146.333333333 = A.D. 2026-Apr-15 20:00:00.0000 (CT)
   1.234966114549432E+01 -2.699765388549728E+01  1.310336129939900E-03
2461146.375000000 = A.D. 2026-Apr-15 21:00:00.0000 (CT)
   1.236879903066607E+01 -2.698851902967062E+01  1.309683590679881E-03
2461146.416666667 = A.D. 2026-Apr-15 22:00:00.0000 (CT)
   1.238792996414829E+01 -2.697937076520094E+01  1.309030280194006E-03
2461146.458333333 = A.D. 2026-Apr-15 23:00:00.0000 (CT)
   1.240705393678614E+01 -2.697020909763246E+01  1.308376198875961E-03
2461146.500000000 = A.D. 2026-Apr-16 00:00:00.0000 (CT)
   1.242617093942949E+01 -2.696103403251530E+01  1.307721347132253E-03
2461146.541666667 = A.D. 2026-Apr-16 01:00:00.0000 (CT)
   1.244528096293294E+01 -2.695184557540540E+01  1.307065725353411E-03
2461146.583333333 = A.D. 2026-Apr-16 02:00:00.0000 (CT)
   1.246438399815582E+01 -2.694264373186464E+01  1.306409333942794E-03
2461146.625000000 = A.D. 2026-Apr-16 03:00:00.0000 (CT)
   1.248348003596219E+01 -2.693342850746070E+01  1.305752173300816E-03
2461146.666666667 = A.D. 2026-Apr-16 04:00:00.0000 (CT)
   1.250256906722084E+01 -2.692419990776716E+01  1.305094243835067E-03
2461146.708333333 = A.D. 2026-Apr-16 05:00:00.0000 (CT)
   1.252165108280531E+01 -2.691495793836344E+01  1.304435545949001E-03
2461146.750000000 = A.D. 2026-Apr-16 06:00:00.0000 (CT)
   1.254072607359389E+01 -2.690570260483482E+01  1.303776080055089E-03
2461146.791666667 = A.D. 2026-Apr-16 07:00:00.0000 (CT)
   1.255979403046959E+01 -2.689643391277242E+01  1.303115846557427E-03
2461146.833333333 = A.D. 2026-Apr-16 08:00:00.0000 (CT)
   1.257885494432019E+01 -2.688715186777320E+01  1.302454845869450E-03
2461146.875000000 = A.D. 2026-Apr-16 09:00:00.0000 (CT)
   1.259790880603822E+01 -2.687785647543995E+01  1.301793078411000E-03
2461146.916666667 = A.D. 2026-Apr-16 10:00:00.0000 (CT)
   1.261695560652097E+01 -2.686854774138131E+01  1.301130544589519E-03
2461146.958333333 = A.D. 2026-Apr-16 11:00:00.0000 (CT)
   1.263599533667047E+01 -2.685922567121174E+01  1.300467244828310E-03
2461147.000000000 = A.D. 2026-Apr-16 12:00:00.0000 (CT)
   1.265502798739354E+01 -2.684989027055151E+01  1.299803179541320E-03
2461147.041666667 = A.D. 2026-Apr-16 13:00:00.0000 (CT)
   1.267405354960175E+01 -2.684054154502671E+01  1.299138349154541E-03
2461147.083333333 = A.D. 2026-Apr-16 14:00:00.0000 (CT)
   1.269307201421144E+01 -2.683117950026927E+01  1.298472754089291E-03
2461147.125000000 = A.D. 2026-Apr-16 15:00:00.0000 (CT)
   1.271208337214374E+01 -2.682180414191690E+01  1.297806394770238E-03
2461147.166666667 = A.D. 2026-Apr-16 16:00:00.0000 (CT)
   1.273108761432453E+01 -2.681241547561311E+01  1.297139271621494E-03
2461147.208333333 = A.D. 2026-Apr-16 17:00:00.0000 (CT)
   1.275008473168449E+01 -2.680301350700724E+01  1.296471385076393E-03
2461147.250000000 = A.D. 2026-Apr-16 18:00:00.0000 (CT)
   1.276907471515908E+01 -2.679359824175439E+01  1.295802735559674E-03
2461147.291666667 = A.D. 2026-Apr-16 19:00:00.0000 (CT)
   1.278805755568854E+01 -2.678416968551547E+01  1.295133323505509E-03
2461147.333333333 = A.D. 2026-Apr-16 20:00:00.0000 (CT)
   1.280703324421791E+01 -2.677472784395717E+01  1.294463149347404E-03
2461147.375000000 = A.D. 2026-Apr-16 21:00:00.0000 (CT)
   1.282600177169702E+01 -2.676527272275195E+01  1.293792213519826E-03
2461147.416666667 = A.D. 2026-Apr-16 22:00:00.0000 (CT)
   1.284496312908049E+01 -2.675580432757807E+01  1.293120516463305E-03
2461147.458333333 = A.D. 2026-Apr-16 23:00:00.0000 (CT)
   1.286391730732776E+01 -2.674632266411953E+01  1.292448058609011E-03
2461147.500000000 = A.D. 2026-Apr-17 00:00:00.0000 (CT)
   1.288286429740304E+01 -2.673682773806611E+01  1.291774840400913E-03
2461147.541666667 = A.D. 2026-Apr-17 01:00:00.0000 (CT)
   1.290180409027539E+01 -2.672731955511336E+01  1.291100862283179E-03
2461147.583333333 = A.D. 2026-Apr-17 02:00:00.0000 (CT)
   1.292073667691864E+01 -2.671779812096258E+01  1.290426124700389E-03
2461147.625000000 = A.D. 2026-Apr-17 03:00:00.0000 (CT)
   1.293966204831147E+01 -2.670826344132080E+01  1.289750628088296E-03
2461147.666666667 = A.D. 2026-Apr-17 04:00:00.0000 (CT)
   1.295858019543735E+01 -2.669871552190084E+01  1.289074372905996E-03
2461147.708333333 = A.D. 2026-Apr-17 05:00:00.0000 (CT)
   1.297749110928459E+01 -2.668915436842122E+01  1.288397359592999E-03
2461147.750000000 = A.D. 2026-Apr-17 06:00:00.0000 (CT)
   1.299639478084631E+01 -2.667957998660624E+01  1.287719588604329E-03
2461147.791666667 = A.D. 2026-Apr-17 07:00:00.0000 (CT)
   1.301529120112046E+01 -2.666999238218589E+01  1.287041060389224E-03
2461147.833333333 = A.D. 2026-Apr-17 08:00:00.0000 (CT)
   1.303418036110984E+01 -2.666039156089591E+01  1.286361775399285E-03
2461147.875000000 = A.D. 2026-Apr-17 09:00:00.0000 (CT)
   1.305306225182206E+01 -2.665077752847776E+01  1.285681734090108E-03
2461147.916666667 = A.D. 2026-Apr-17 10:00:00.0000 (CT)
   1.307193686426959E+01 -2.664115029067862E+01  1.285000936914978E-03
2461147.958333333 = A.D. 2026-Apr-17 11:00:00.0000 (CT)
   1.309080418946971E+01 -2.663150985325140E+01  1.284319384335078E-03
2461148.000000000 = A.D. 2026-Apr-17 12:00:00.0000 (CT)
   1.310966421844459E+01 -2.662185622195469E+01  1.283637076808744E-03
2461148.041666667 = A.D. 2026-Apr-17 13:00:00.0000 (CT)
   1.312851694222121E+01 -2.661218940255280E+01  1.282954014797531E-03
